IRIDIUM 106             
1 41917U 17003A   24253.38784245  .00002368  00000+0  83838-3 0  9991
2 41917  86.4032 358.4010 0001903  98.9519 261.1893 14.34217046400648
IRIDIUM 103             
1 41918U 17003B   24253.58445927  .00001325  00000+0  46617-3 0  9991
2 41918  86.4032 358.2206 0001776  82.7475 277.3923 14.34216115400698
IRIDIUM 109             
1 41919U 17003C   24253.59081211  .00000155  00000+0  48242-4 0  9992
2 41919  86.4033 358.2663 0002441  86.6219 273.5256 14.34215870400667
IRIDIUM 102             
1 41920U 17003D   24253.76840462  .00000217  00000+0  70349-4 0  9996
2 41920  86.4031 358.1298 0002225  96.2596 263.8853 14.34216663400773
IRIDIUM 105             
1 41921U 17003E   24253.59954720  .00001125  00000+0  39478-3 0  9997
2 41921  86.4004 326.6535 0002013  94.0237 266.1189 14.34215245402608
IRIDIUM 104             
1 41922U 17003F   24253.57178170  .00001490  00000+0  52487-3 0  9993
2 41922  86.4033 358.2443 0002331  83.2701 276.8760 14.34221128400731
IRIDIUM 114             
1 41923U 17003G   24253.78743230  .00000295  00000+0  98422-4 0  9994
2 41923  86.4032 358.1400 0001848  99.3482 260.7922 14.34217960400763
IRIDIUM 108             
1 41924U 17003H   24253.74594530  .00001221  00000+0  42872-3 0  9995
2 41924  86.3999 326.5118 0002094  97.2716 262.8717 14.34225514402616
